[{"OBJECT_NAME":"STARLINK-6262","OBJECT_ID":"2023-088AV","EPOCH":"2026-03-09T22:00:01.999584","MEAN_MOTION":15.08522241,"ECCENTRICITY":0.00013561,"INCLINATION":43.0008,"RA_OF_ASC_NODE":92.9596,"ARG_OF_PERICENTER":291.1989,"MEAN_ANOMALY":189.7369,"EPHEMERIS_TYPE":0,"CLASSIFICATION_TYPE":"U","NORAD_CAT_ID":57091,"ELEMENT_SET_NO":999,"REV_AT_EPOCH":578,"BSTAR":0.0034695324,"MEAN_MOTION_DOT":0.00055285,"MEAN_MOTION_DDOT":0},{"OBJECT_NAME":"SL-12 DEB","OBJECT_ID":"2010-007AT","EPOCH":"2026-03-08T12:27:49.447584","MEAN_MOTION":4.39455664,"ECCENTRICITY":0.56153312,"INCLINATION":64.5558,"RA_OF_ASC_NODE":300.2281,"ARG_OF_PERICENTER":338.9414,"MEAN_ANOMALY":5.0502,"EPHEMERIS_TYPE":0,"CLASSIFICATION_TYPE":"U","NORAD_CAT_ID":48541,"ELEMENT_SET_NO":999,"REV_AT_EPOCH":16996,"BSTAR":0.013014937,"MEAN_MOTION_DOT":4.714e-5,"MEAN_MOTION_DDOT":0}]
